[{"OBJECT_NAME":"STARLINK-3078","OBJECT_ID":"2021-082E","EPOCH":"2026-03-09T22:02:30.521184","MEAN_MOTION":14.98354201,"ECCENTRICITY":0.00027779,"INCLINATION":69.9988,"RA_OF_ASC_NODE":293.883,"ARG_OF_PERICENTER":269.5182,"MEAN_ANOMALY":90.5658,"EPHEMERIS_TYPE":0,"CLASSIFICATION_TYPE":"U","NORAD_CAT_ID":49134,"ELEMENT_SET_NO":999,"REV_AT_EPOCH":24721,"BSTAR":-0.00042795452,"MEAN_MOTION_DOT":-5.199e-5,"MEAN_MOTION_DDOT":0},{"OBJECT_NAME":"EZIE-A","OBJECT_ID":"2025-052AP","EPOCH":"2026-03-09T23:28:40.313568","MEAN_MOTION":14.96303626,"ECCENTRICITY":0.00037417,"INCLINATION":97.7004,"RA_OF_ASC_NODE":322.7329,"ARG_OF_PERICENTER":145.0909,"MEAN_ANOMALY":215.0559,"EPHEMERIS_TYPE":0,"CLASSIFICATION_TYPE":"U","NORAD_CAT_ID":63247,"ELEMENT_SET_NO":999,"REV_AT_EPOCH":5382,"BSTAR":0.00071342701,"MEAN_MOTION_DOT":8.013e-5,"MEAN_MOTION_DDOT":0}]
